[
  {
    "id": "1",
    "sortName": "AF",
    "name": "Afghanistan",
    "phoneCode": "93"
  },
  {
    "id": "2",
    "sortName": "AL",
    "name": "Albania",
    "phoneCode": "355"
  },
  {
    "id": "3",
    "sortName": "DZ",
    "name": "Algeria",
    "phoneCode": "213"
  },
  {
    "id": "4",
    "sortName": "AS",
    "name": "American Samoa",
    "phoneCode": "1684"
  },
  {
    "id": "5",
    "sortName": "AD",
    "name": "Andorra",
    "phoneCode": "376"
  },
  {
    "id": "6",
    "sortName": "AO",
    "name": "Angola",
    "phoneCode": "244"
  },
  {
    "id": "7",
    "sortName": "AI",
    "name": "Anguilla",
    "phoneCode": "1264"
  },
  {
    "id": "8",
    "sortName": "AQ",
    "name": "Antarctica",
    "phoneCode": "0"
  },
  {
    "id": "9",
    "sortName": "AG",
    "name": "Antigua And Barbuda",
    "phoneCode": "1268"
  },
  {
    "id": "10",
    "sortName": "AR",
    "name": "Argentina",
    "phoneCode": "54"
  },
  {
    "id": "11",
    "sortName": "AM",
    "name": "Armenia",
    "phoneCode": "374"
  },
  {
    "id": "12",
    "sortName": "AW",
    "name": "Aruba",
    "phoneCode": "297"
  },
  {
    "id": "13",
    "sortName": "AU",
    "name": "Australia",
    "phoneCode": "61"
  },
  {
    "id": "14",
    "sortName": "AT",
    "name": "Austria",
    "phoneCode": "43"
  },
  {
    "id": "15",
    "sortName": "AZ",
    "name": "Azerbaijan",
    "phoneCode": "994"
  },
  {
    "id": "16",
    "sortName": "BS",
    "name": "Bahamas The",
    "phoneCode": "1242"
  },
  {
    "id": "17",
    "sortName": "BH",
    "name": "Bahrain",
    "phoneCode": "973"
  },
  {
    "id": "18",
    "sortName": "BD",
    "name": "Bangladesh",
    "phoneCode": "880"
  },
  {
    "id": "19",
    "sortName": "BB",
    "name": "Barbados",
    "phoneCode": "1246"
  },
  {
    "id": "20",
    "sortName": "BY",
    "name": "Belarus",
    "phoneCode": "375"
  },
  {
    "id": "21",
    "sortName": "BE",
    "name": "Belgium",
    "phoneCode": "32"
  },
  {
    "id": "22",
    "sortName": "BZ",
    "name": "Belize",
    "phoneCode": "501"
  },
  {
    "id": "23",
    "sortName": "BJ",
    "name": "Benin",
    "phoneCode": "229"
  },
  {
    "id": "24",
    "sortName": "BM",
    "name": "Bermuda",
    "phoneCode": "1441"
  },
  {
    "id": "25",
    "sortName": "BT",
    "name": "Bhutan",
    "phoneCode": "975"
  },
  {
    "id": "26",
    "sortName": "BO",
    "name": "Bolivia",
    "phoneCode": "591"
  },
  {
    "id": "27",
    "sortName": "BA",
    "name": "Bosnia and Herzegovina",
    "phoneCode": "387"
  },
  {
    "id": "28",
    "sortName": "BW",
    "name": "Botswana",
    "phoneCode": "267"
  },
  {
    "id": "29",
    "sortName": "BV",
    "name": "Bouvet Island",
    "phoneCode": "0"
  },
  {
    "id": "30",
    "sortName": "BR",
    "name": "Brazil",
    "phoneCode": "55"
  },
  {
    "id": "31",
    "sortName": "IO",
    "name": "British Indian Ocean Territory",
    "phoneCode": "246"
  },
  {
    "id": "32",
    "sortName": "BN",
    "name": "Brunei",
    "phoneCode": "673"
  },
  {
    "id": "33",
    "sortName": "BG",
    "name": "Bulgaria",
    "phoneCode": "359"
  },
  {
    "id": "34",
    "sortName": "BF",
    "name": "Burkina Faso",
    "phoneCode": "226"
  },
  {
    "id": "35",
    "sortName": "BI",
    "name": "Burundi",
    "phoneCode": "257"
  },
  {
    "id": "36",
    "sortName": "KH",
    "name": "Cambodia",
    "phoneCode": "855"
  },
  {
    "id": "37",
    "sortName": "CM",
    "name": "Cameroon",
    "phoneCode": "237"
  },
  {
    "id": "38",
    "sortName": "CA",
    "name": "Canada",
    "phoneCode": "1"
  },
  {
    "id": "39",
    "sortName": "CV",
    "name": "Cape Verde",
    "phoneCode": "238"
  },
  {
    "id": "40",
    "sortName": "KY",
    "name": "Cayman Islands",
    "phoneCode": "1345"
  },
  {
    "id": "41",
    "sortName": "CF",
    "name": "Central African Republic",
    "phoneCode": "236"
  },
  {
    "id": "42",
    "sortName": "TD",
    "name": "Chad",
    "phoneCode": "235"
  },
  {
    "id": "43",
    "sortName": "CL",
    "name": "Chile",
    "phoneCode": "56"
  },
  {
    "id": "44",
    "sortName": "CN",
    "name": "China",
    "phoneCode": "86"
  },
  {
    "id": "45",
    "sortName": "CX",
    "name": "Christmas Island",
    "phoneCode": "61"
  },
  {
    "id": "46",
    "sortName": "CC",
    "name": "Cocos (Keeling) Islands",
    "phoneCode": "672"
  },
  {
    "id": "47",
    "sortName": "CO",
    "name": "Colombia",
    "phoneCode": "57"
  },
  {
    "id": "48",
    "sortName": "KM",
    "name": "Comoros",
    "phoneCode": "269"
  },
  {
    "id": "49",
    "sortName": "CG",
    "name": "Congo",
    "phoneCode": "242"
  },
  {
    "id": "50",
    "sortName": "CD",
    "name": "Congo The Democratic Republic Of The",
    "phoneCode": "242"
  },
  {
    "id": "51",
    "sortName": "CK",
    "name": "Cook Islands",
    "phoneCode": "682"
  },
  {
    "id": "52",
    "sortName": "CR",
    "name": "Costa Rica",
    "phoneCode": "506"
  },
  {
    "id": "53",
    "sortName": "CI",
    "name": "Cote D'Ivoire (Ivory Coast)",
    "phoneCode": "225"
  },
  {
    "id": "54",
    "sortName": "HR",
    "name": "Croatia (Hrvatska)",
    "phoneCode": "385"
  },
  {
    "id": "55",
    "sortName": "CU",
    "name": "Cuba",
    "phoneCode": "53"
  },
  {
    "id": "56",
    "sortName": "CY",
    "name": "Cyprus",
    "phoneCode": "357"
  },
  {
    "id": "57",
    "sortName": "CZ",
    "name": "Czech Republic",
    "phoneCode": "420"
  },
  {
    "id": "58",
    "sortName": "DK",
    "name": "Denmark",
    "phoneCode": "45"
  },
  {
    "id": "59",
    "sortName": "DJ",
    "name": "Djibouti",
    "phoneCode": "253"
  },
  {
    "id": "60",
    "sortName": "DM",
    "name": "Dominica",
    "phoneCode": "1767"
  },
  {
    "id": "61",
    "sortName": "DO",
    "name": "Dominican Republic",
    "phoneCode": "1809"
  },
  {
    "id": "62",
    "sortName": "TP",
    "name": "East Timor",
    "phoneCode": "670"
  },
  {
    "id": "63",
    "sortName": "EC",
    "name": "Ecuador",
    "phoneCode": "593"
  },
  {
    "id": "64",
    "sortName": "EG",
    "name": "Egypt",
    "phoneCode": "20"
  },
  {
    "id": "65",
    "sortName": "SV",
    "name": "El Salvador",
    "phoneCode": "503"
  },
  {
    "id": "66",
    "sortName": "GQ",
    "name": "Equatorial Guinea",
    "phoneCode": "240"
  },
  {
    "id": "67",
    "sortName": "ER",
    "name": "Eritrea",
    "phoneCode": "291"
  },
  {
    "id": "68",
    "sortName": "EE",
    "name": "Estonia",
    "phoneCode": "372"
  },
  {
    "id": "69",
    "sortName": "ET",
    "name": "Ethiopia",
    "phoneCode": "251"
  },
  {
    "id": "70",
    "sortName": "XA",
    "name": "External Territories of Australia",
    "phoneCode": "61"
  },
  {
    "id": "71",
    "sortName": "FK",
    "name": "Falkland Islands",
    "phoneCode": "500"
  },
  {
    "id": "72",
    "sortName": "FO",
    "name": "Faroe Islands",
    "phoneCode": "298"
  },
  {
    "id": "73",
    "sortName": "FJ",
    "name": "Fiji Islands",
    "phoneCode": "679"
  },
  {
    "id": "74",
    "sortName": "FI",
    "name": "Finland",
    "phoneCode": "358"
  },
  {
    "id": "75",
    "sortName": "FR",
    "name": "France",
    "phoneCode": "33"
  },
  {
    "id": "76",
    "sortName": "GF",
    "name": "French Guiana",
    "phoneCode": "594"
  },
  {
    "id": "77",
    "sortName": "PF",
    "name": "French Polynesia",
    "phoneCode": "689"
  },
  {
    "id": "78",
    "sortName": "TF",
    "name": "French Southern Territories",
    "phoneCode": "0"
  },
  {
    "id": "79",
    "sortName": "GA",
    "name": "Gabon",
    "phoneCode": "241"
  },
  {
    "id": "80",
    "sortName": "GM",
    "name": "Gambia The",
    "phoneCode": "220"
  },
  {
    "id": "81",
    "sortName": "GE",
    "name": "Georgia",
    "phoneCode": "995"
  },
  {
    "id": "82",
    "sortName": "DE",
    "name": "Germany",
    "phoneCode": "49"
  },
  {
    "id": "83",
    "sortName": "GH",
    "name": "Ghana",
    "phoneCode": "233"
  },
  {
    "id": "84",
    "sortName": "GI",
    "name": "Gibraltar",
    "phoneCode": "350"
  },
  {
    "id": "85",
    "sortName": "GR",
    "name": "Greece",
    "phoneCode": "30"
  },
  {
    "id": "86",
    "sortName": "GL",
    "name": "Greenland",
    "phoneCode": "299"
  },
  {
    "id": "87",
    "sortName": "GD",
    "name": "Grenada",
    "phoneCode": "1473"
  },
  {
    "id": "88",
    "sortName": "GP",
    "name": "Guadeloupe",
    "phoneCode": "590"
  },
  {
    "id": "89",
    "sortName": "GU",
    "name": "Guam",
    "phoneCode": "1671"
  },
  {
    "id": "90",
    "sortName": "GT",
    "name": "Guatemala",
    "phoneCode": "502"
  },
  {
    "id": "91",
    "sortName": "XU",
    "name": "Guernsey and Alderney",
    "phoneCode": "44"
  },
  {
    "id": "92",
    "sortName": "GN",
    "name": "Guinea",
    "phoneCode": "224"
  },
  {
    "id": "93",
    "sortName": "GW",
    "name": "Guinea-Bissau",
    "phoneCode": "245"
  },
  {
    "id": "94",
    "sortName": "GY",
    "name": "Guyana",
    "phoneCode": "592"
  },
  {
    "id": "95",
    "sortName": "HT",
    "name": "Haiti",
    "phoneCode": "509"
  },
  {
    "id": "96",
    "sortName": "HM",
    "name": "Heard and McDonald Islands",
    "phoneCode": "0"
  },
  {
    "id": "97",
    "sortName": "HN",
    "name": "Honduras",
    "phoneCode": "504"
  },
  {
    "id": "98",
    "sortName": "HK",
    "name": "Hong Kong S.A.R.",
    "phoneCode": "852"
  },
  {
    "id": "99",
    "sortName": "HU",
    "name": "Hungary",
    "phoneCode": "36"
  },
  {
    "id": "100",
    "sortName": "IS",
    "name": "Iceland",
    "phoneCode": "354"
  },
  {
    "id": "101",
    "sortName": "IN",
    "name": "India",
    "phoneCode": "91"
  },
  {
    "id": "102",
    "sortName": "ID",
    "name": "Indonesia",
    "phoneCode": "62"
  },
  {
    "id": "103",
    "sortName": "IR",
    "name": "Iran",
    "phoneCode": "98"
  },
  {
    "id": "104",
    "sortName": "IQ",
    "name": "Iraq",
    "phoneCode": "964"
  },
  {
    "id": "105",
    "sortName": "IE",
    "name": "Ireland",
    "phoneCode": "353"
  },
  {
    "id": "106",
    "sortName": "IL",
    "name": "Israel",
    "phoneCode": "972"
  },
  {
    "id": "107",
    "sortName": "IT",
    "name": "Italy",
    "phoneCode": "39"
  },
  {
    "id": "108",
    "sortName": "JM",
    "name": "Jamaica",
    "phoneCode": "1876"
  },
  {
    "id": "109",
    "sortName": "JP",
    "name": "Japan",
    "phoneCode": "81"
  },
  {
    "id": "110",
    "sortName": "XJ",
    "name": "Jersey",
    "phoneCode": "44"
  },
  {
    "id": "111",
    "sortName": "JO",
    "name": "Jordan",
    "phoneCode": "962"
  },
  {
    "id": "112",
    "sortName": "KZ",
    "name": "Kazakhstan",
    "phoneCode": "7"
  },
  {
    "id": "113",
    "sortName": "KE",
    "name": "Kenya",
    "phoneCode": "254"
  },
  {
    "id": "114",
    "sortName": "KI",
    "name": "Kiribati",
    "phoneCode": "686"
  },
  {
    "id": "115",
    "sortName": "KP",
    "name": "Korea North",
    "phoneCode": "850"
  },
  {
    "id": "116",
    "sortName": "KR",
    "name": "Korea South",
    "phoneCode": "82"
  },
  {
    "id": "117",
    "sortName": "KW",
    "name": "Kuwait",
    "phoneCode": "965"
  },
  {
    "id": "118",
    "sortName": "KG",
    "name": "Kyrgyzstan",
    "phoneCode": "996"
  },
  {
    "id": "119",
    "sortName": "LA",
    "name": "Laos",
    "phoneCode": "856"
  },
  {
    "id": "120",
    "sortName": "LV",
    "name": "Latvia",
    "phoneCode": "371"
  },
  {
    "id": "121",
    "sortName": "LB",
    "name": "Lebanon",
    "phoneCode": "961"
  },
  {
    "id": "122",
    "sortName": "LS",
    "name": "Lesotho",
    "phoneCode": "266"
  },
  {
    "id": "123",
    "sortName": "LR",
    "name": "Liberia",
    "phoneCode": "231"
  },
  {
    "id": "124",
    "sortName": "LY",
    "name": "Libya",
    "phoneCode": "218"
  },
  {
    "id": "125",
    "sortName": "LI",
    "name": "Liechtenstein",
    "phoneCode": "423"
  },
  {
    "id": "126",
    "sortName": "LT",
    "name": "Lithuania",
    "phoneCode": "370"
  },
  {
    "id": "127",
    "sortName": "LU",
    "name": "Luxembourg",
    "phoneCode": "352"
  },
  {
    "id": "128",
    "sortName": "MO",
    "name": "Macau S.A.R.",
    "phoneCode": "853"
  },
  {
    "id": "129",
    "sortName": "MK",
    "name": "Macedonia",
    "phoneCode": "389"
  },
  {
    "id": "130",
    "sortName": "MG",
    "name": "Madagascar",
    "phoneCode": "261"
  },
  {
    "id": "131",
    "sortName": "MW",
    "name": "Malawi",
    "phoneCode": "265"
  },
  {
    "id": "132",
    "sortName": "MY",
    "name": "Malaysia",
    "phoneCode": "60"
  },
  {
    "id": "133",
    "sortName": "MV",
    "name": "Maldives",
    "phoneCode": "960"
  },
  {
    "id": "134",
    "sortName": "ML",
    "name": "Mali",
    "phoneCode": "223"
  },
  {
    "id": "135",
    "sortName": "MT",
    "name": "Malta",
    "phoneCode": "356"
  },
  {
    "id": "136",
    "sortName": "XM",
    "name": "Man (Isle of)",
    "phoneCode": "44"
  },
  {
    "id": "137",
    "sortName": "MH",
    "name": "Marshall Islands",
    "phoneCode": "692"
  },
  {
    "id": "138",
    "sortName": "MQ",
    "name": "Martinique",
    "phoneCode": "596"
  },
  {
    "id": "139",
    "sortName": "MR",
    "name": "Mauritania",
    "phoneCode": "222"
  },
  {
    "id": "140",
    "sortName": "MU",
    "name": "Mauritius",
    "phoneCode": "230"
  },
  {
    "id": "141",
    "sortName": "YT",
    "name": "Mayotte",
    "phoneCode": "269"
  },
  {
    "id": "142",
    "sortName": "MX",
    "name": "Mexico",
    "phoneCode": "52"
  },
  {
    "id": "143",
    "sortName": "FM",
    "name": "Micronesia",
    "phoneCode": "691"
  },
  {
    "id": "144",
    "sortName": "MD",
    "name": "Moldova",
    "phoneCode": "373"
  },
  {
    "id": "145",
    "sortName": "MC",
    "name": "Monaco",
    "phoneCode": "377"
  },
  {
    "id": "146",
    "sortName": "MN",
    "name": "Mongolia",
    "phoneCode": "976"
  },
  {
    "id": "147",
    "sortName": "MS",
    "name": "Montserrat",
    "phoneCode": "1664"
  },
  {
    "id": "148",
    "sortName": "MA",
    "name": "Morocco",
    "phoneCode": "212"
  },
  {
    "id": "149",
    "sortName": "MZ",
    "name": "Mozambique",
    "phoneCode": "258"
  },
  {
    "id": "150",
    "sortName": "MM",
    "name": "Myanmar",
    "phoneCode": "95"
  },
  {
    "id": "151",
    "sortName": "NA",
    "name": "Namibia",
    "phoneCode": "264"
  },
  {
    "id": "152",
    "sortName": "NR",
    "name": "Nauru",
    "phoneCode": "674"
  },
  {
    "id": "153",
    "sortName": "NP",
    "name": "Nepal",
    "phoneCode": "977"
  },
  {
    "id": "154",
    "sortName": "AN",
    "name": "Netherlands Antilles",
    "phoneCode": "599"
  },
  {
    "id": "155",
    "sortName": "NL",
    "name": "Netherlands The",
    "phoneCode": "31"
  },
  {
    "id": "156",
    "sortName": "NC",
    "name": "New Caledonia",
    "phoneCode": "687"
  },
  {
    "id": "157",
    "sortName": "NZ",
    "name": "New Zealand",
    "phoneCode": "64"
  },
  {
    "id": "158",
    "sortName": "NI",
    "name": "Nicaragua",
    "phoneCode": "505"
  },
  {
    "id": "159",
    "sortName": "NE",
    "name": "Niger",
    "phoneCode": "227"
  },
  {
    "id": "160",
    "sortName": "NG",
    "name": "Nigeria",
    "phoneCode": "234"
  },
  {
    "id": "161",
    "sortName": "NU",
    "name": "Niue",
    "phoneCode": "683"
  },
  {
    "id": "162",
    "sortName": "NF",
    "name": "Norfolk Island",
    "phoneCode": "672"
  },
  {
    "id": "163",
    "sortName": "MP",
    "name": "Northern Mariana Islands",
    "phoneCode": "1670"
  },
  {
    "id": "164",
    "sortName": "NO",
    "name": "Norway",
    "phoneCode": "47"
  },
  {
    "id": "165",
    "sortName": "OM",
    "name": "Oman",
    "phoneCode": "968"
  },
  {
    "id": "166",
    "sortName": "PK",
    "name": "Pakistan",
    "phoneCode": "92"
  },
  {
    "id": "167",
    "sortName": "PW",
    "name": "Palau",
    "phoneCode": "680"
  },
  {
    "id": "168",
    "sortName": "PS",
    "name": "Palestinian Territory Occupied",
    "phoneCode": "970"
  },
  {
    "id": "169",
    "sortName": "PA",
    "name": "Panama",
    "phoneCode": "507"
  },
  {
    "id": "170",
    "sortName": "PG",
    "name": "Papua new Guinea",
    "phoneCode": "675"
  },
  {
    "id": "171",
    "sortName": "PY",
    "name": "Paraguay",
    "phoneCode": "595"
  },
  {
    "id": "172",
    "sortName": "PE",
    "name": "Peru",
    "phoneCode": "51"
  },
  {
    "id": "173",
    "sortName": "PH",
    "name": "Philippines",
    "phoneCode": "63"
  },
  {
    "id": "174",
    "sortName": "PN",
    "name": "Pitcairn Island",
    "phoneCode": "0"
  },
  {
    "id": "175",
    "sortName": "PL",
    "name": "Poland",
    "phoneCode": "48"
  },
  {
    "id": "176",
    "sortName": "PT",
    "name": "Portugal",
    "phoneCode": "351"
  },
  {
    "id": "177",
    "sortName": "PR",
    "name": "Puerto Rico",
    "phoneCode": "1787"
  },
  {
    "id": "178",
    "sortName": "QA",
    "name": "Qatar",
    "phoneCode": "974"
  },
  {
    "id": "179",
    "sortName": "RE",
    "name": "Reunion",
    "phoneCode": "262"
  },
  {
    "id": "180",
    "sortName": "RO",
    "name": "Romania",
    "phoneCode": "40"
  },
  {
    "id": "181",
    "sortName": "RU",
    "name": "Russia",
    "phoneCode": "70"
  },
  {
    "id": "182",
    "sortName": "RW",
    "name": "Rwanda",
    "phoneCode": "250"
  },
  {
    "id": "183",
    "sortName": "SH",
    "name": "Saint Helena",
    "phoneCode": "290"
  },
  {
    "id": "184",
    "sortName": "KN",
    "name": "Saint Kitts And Nevis",
    "phoneCode": "1869"
  },
  {
    "id": "185",
    "sortName": "LC",
    "name": "Saint Lucia",
    "phoneCode": "1758"
  },
  {
    "id": "186",
    "sortName": "PM",
    "name": "Saint Pierre and Miquelon",
    "phoneCode": "508"
  },
  {
    "id": "187",
    "sortName": "VC",
    "name": "Saint Vincent And The Grenadines",
    "phoneCode": "1784"
  },
  {
    "id": "188",
    "sortName": "WS",
    "name": "Samoa",
    "phoneCode": "684"
  },
  {
    "id": "189",
    "sortName": "SM",
    "name": "San Marino",
    "phoneCode": "378"
  },
  {
    "id": "190",
    "sortName": "ST",
    "name": "Sao Tome and Principe",
    "phoneCode": "239"
  },
  {
    "id": "191",
    "sortName": "SA",
    "name": "Saudi Arabia",
    "phoneCode": "966"
  },
  {
    "id": "192",
    "sortName": "SN",
    "name": "Senegal",
    "phoneCode": "221"
  },
  {
    "id": "193",
    "sortName": "RS",
    "name": "Serbia",
    "phoneCode": "381"
  },
  {
    "id": "194",
    "sortName": "SC",
    "name": "Seychelles",
    "phoneCode": "248"
  },
  {
    "id": "195",
    "sortName": "SL",
    "name": "Sierra Leone",
    "phoneCode": "232"
  },
  {
    "id": "196",
    "sortName": "SG",
    "name": "Singapore",
    "phoneCode": "65"
  },
  {
    "id": "197",
    "sortName": "SK",
    "name": "Slovakia",
    "phoneCode": "421"
  },
  {
    "id": "198",
    "sortName": "SI",
    "name": "Slovenia",
    "phoneCode": "386"
  },
  {
    "id": "199",
    "sortName": "XG",
    "name": "Smaller Territories of the UK",
    "phoneCode": "44"
  },
  {
    "id": "200",
    "sortName": "SB",
    "name": "Solomon Islands",
    "phoneCode": "677"
  },
  {
    "id": "201",
    "sortName": "SO",
    "name": "Somalia",
    "phoneCode": "252"
  },
  {
    "id": "202",
    "sortName": "ZA",
    "name": "South Africa",
    "phoneCode": "27"
  },
  {
    "id": "203",
    "sortName": "GS",
    "name": "South Georgia",
    "phoneCode": "0"
  },
  {
    "id": "204",
    "sortName": "SS",
    "name": "South Sudan",
    "phoneCode": "211"
  },
  {
    "id": "205",
    "sortName": "ES",
    "name": "Spain",
    "phoneCode": "34"
  },
  {
    "id": "206",
    "sortName": "LK",
    "name": "Sri Lanka",
    "phoneCode": "94"
  },
  {
    "id": "207",
    "sortName": "SD",
    "name": "Sudan",
    "phoneCode": "249"
  },
  {
    "id": "208",
    "sortName": "SR",
    "name": "Suriname",
    "phoneCode": "597"
  },
  {
    "id": "209",
    "sortName": "SJ",
    "name": "Svalbard And Jan Mayen Islands",
    "phoneCode": "47"
  },
  {
    "id": "210",
    "sortName": "SZ",
    "name": "Swaziland",
    "phoneCode": "268"
  },
  {
    "id": "211",
    "sortName": "SE",
    "name": "Sweden",
    "phoneCode": "46"
  },
  {
    "id": "212",
    "sortName": "CH",
    "name": "Switzerland",
    "phoneCode": "41"
  },
  {
    "id": "213",
    "sortName": "SY",
    "name": "Syria",
    "phoneCode": "963"
  },
  {
    "id": "214",
    "sortName": "TW",
    "name": "Taiwan",
    "phoneCode": "886"
  },
  {
    "id": "215",
    "sortName": "TJ",
    "name": "Tajikistan",
    "phoneCode": "992"
  },
  {
    "id": "216",
    "sortName": "TZ",
    "name": "Tanzania",
    "phoneCode": "255"
  },
  {
    "id": "217",
    "sortName": "TH",
    "name": "Thailand",
    "phoneCode": "66"
  },
  {
    "id": "218",
    "sortName": "TG",
    "name": "Togo",
    "phoneCode": "228"
  },
  {
    "id": "219",
    "sortName": "TK",
    "name": "Tokelau",
    "phoneCode": "690"
  },
  {
    "id": "220",
    "sortName": "TO",
    "name": "Tonga",
    "phoneCode": "676"
  },
  {
    "id": "221",
    "sortName": "TT",
    "name": "Trinidad And Tobago",
    "phoneCode": "1868"
  },
  {
    "id": "222",
    "sortName": "TN",
    "name": "Tunisia",
    "phoneCode": "216"
  },
  {
    "id": "223",
    "sortName": "TR",
    "name": "Turkey",
    "phoneCode": "90"
  },
  {
    "id": "224",
    "sortName": "TM",
    "name": "Turkmenistan",
    "phoneCode": "7370"
  },
  {
    "id": "225",
    "sortName": "TC",
    "name": "Turks And Caicos Islands",
    "phoneCode": "1649"
  },
  {
    "id": "226",
    "sortName": "TV",
    "name": "Tuvalu",
    "phoneCode": "688"
  },
  {
    "id": "227",
    "sortName": "UG",
    "name": "Uganda",
    "phoneCode": "256"
  },
  {
    "id": "228",
    "sortName": "UA",
    "name": "Ukraine",
    "phoneCode": "380"
  },
  {
    "id": "229",
    "sortName": "AE",
    "name": "United Arab Emirates",
    "phoneCode": "971"
  },
  {
    "id": "230",
    "sortName": "GB",
    "name": "United Kingdom",
    "phoneCode": "44"
  },
  {
    "id": "231",
    "sortName": "US",
    "name": "United States",
    "phoneCode": "1"
  },
  {
    "id": "232",
    "sortName": "UM",
    "name": "United States Minor Outlying Islands",
    "phoneCode": "1"
  },
  {
    "id": "233",
    "sortName": "UY",
    "name": "Uruguay",
    "phoneCode": "598"
  },
  {
    "id": "234",
    "sortName": "UZ",
    "name": "Uzbekistan",
    "phoneCode": "998"
  },
  {
    "id": "235",
    "sortName": "VU",
    "name": "Vanuatu",
    "phoneCode": "678"
  },
  {
    "id": "236",
    "sortName": "VA",
    "name": "Vatican City State (Holy See)",
    "phoneCode": "39"
  },
  {
    "id": "237",
    "sortName": "VE",
    "name": "Venezuela",
    "phoneCode": "58"
  },
  {
    "id": "238",
    "sortName": "VN",
    "name": "Vietnam",
    "phoneCode": "84"
  },
  {
    "id": "239",
    "sortName": "VG",
    "name": "Virgin Islands (British)",
    "phoneCode": "1284"
  },
  {
    "id": "240",
    "sortName": "VI",
    "name": "Virgin Islands (US)",
    "phoneCode": "1340"
  },
  {
    "id": "241",
    "sortName": "WF",
    "name": "Wallis And Futuna Islands",
    "phoneCode": "681"
  },
  {
    "id": "242",
    "sortName": "EH",
    "name": "Western Sahara",
    "phoneCode": "212"
  },
  {
    "id": "243",
    "sortName": "YE",
    "name": "Yemen",
    "phoneCode": "967"
  },
  {
    "id": "244",
    "sortName": "YU",
    "name": "Yugoslavia",
    "phoneCode": "38"
  },
  {
    "id": "245",
    "sortName": "ZM",
    "name": "Zambia",
    "phoneCode": "260"
  },
  {
    "id": "246",
    "sortName": "ZW",
    "name": "Zimbabwe",
    "phoneCode": "263"
  }
]